[{"OBJECT_NAME":"NUSAT-48 (HENRIETTA LEAVITT)","OBJECT_ID":"2024-149AG","EPOCH":"2026-03-09T19:19:17.269536","MEAN_MOTION":15.29812597,"ECCENTRICITY":0.00027538,"INCLINATION":97.3923,"RA_OF_ASC_NODE":150.8264,"ARG_OF_PERICENTER":263.3026,"MEAN_ANOMALY":96.7901,"EPHEMERIS_TYPE":0,"CLASSIFICATION_TYPE":"U","NORAD_CAT_ID":60498,"ELEMENT_SET_NO":999,"REV_AT_EPOCH":8694,"BSTAR":0.00045211745,"MEAN_MOTION_DOT":0.00012988,"MEAN_MOTION_DDOT":0},{"OBJECT_NAME":"STARLINK-34896","OBJECT_ID":"2025-247Z","EPOCH":"2026-03-09T14:42:05.915808","MEAN_MOTION":15.30171297,"ECCENTRICITY":0.0001243,"INCLINATION":53.1588,"RA_OF_ASC_NODE":191.6684,"ARG_OF_PERICENTER":79.191,"MEAN_ANOMALY":280.9231,"EPHEMERIS_TYPE":0,"CLASSIFICATION_TYPE":"U","NORAD_CAT_ID":66288,"ELEMENT_SET_NO":999,"REV_AT_EPOCH":2102,"BSTAR":0.00094151,"MEAN_MOTION_DOT":0.00027604,"MEAN_MOTION_DDOT":0}]
